start=new Date('2022-03-17T00:00:00.000Z').valueOf();
sats=[{"PERIAPSIS":"538.291","EPOCH":"2022-03-16T20:00:01.000224","MEAN_MOTION_DDOT":"0.0000000000000","MEAN_ELEMENT_THEORY":"SGP4","TLE_LINE1":"1 50158U 21125C   22075.83334491 -.00022007  00000-0 -13684-2 0  9998","CLASSIFICATION_TYPE":"U","REF_FRAME":"TEME","MEAN_MOTION":"15.08850832","COUNTRY_CODE":"US","TLE_LINE2":"2 50158  53.2192 305.7423 0002055  45.8185 163.7136 15.08850832  3583","OBJECT_TYPE":"PAYLOAD","OBJECT_NAME":"STARLINK-3309","OBJECT_ID":"2021-125C","SEMIMAJOR_AXIS":"6917.847","ARG_OF_PERICENTER":"45.8185","TIME_SYSTEM":"UTC","ECCENTRICITY":"0.00020550","MEAN_MOTION_DOT":"-0.00022007","CENTER_NAME":"EARTH","GP_ID":"198924328","BSTAR":"-0.00136840000000","FILE":"3362094","APOAPSIS":"541.134","EPHEMERIS_TYPE":"0","ELEMENT_SET_NO":"999","DECAY_DATE":null,"MEAN_ANOMALY":"163.7136","PERIOD":"95.437","LAUNCH_DATE":"2021-12-18","INCLINATION":"53.2192","NORAD_CAT_ID":"50158","SITE":"AFWTR","RA_OF_ASC_NODE":"305.7423","RCS_SIZE":"LARGE","REV_AT_EPOCH":"358"},{"CENTER_NAME":"EARTH","ELEMENT_SET_NO":"999","EPHEMERIS_TYPE":"0","APOAPSIS":"541.070","BSTAR":"-0.00126080000000","FILE":"3362094","GP_ID":"198923990","RA_OF_ASC_NODE":"305.7387","SITE":"AFWTR","INCLINATION":"53.2194","NORAD_CAT_ID":"50159","PERIOD":"95.436","LAUNCH_DATE":"2021-12-18","MEAN_ANOMALY":"179.5080","DECAY_DATE":null,"REV_AT_EPOCH":"358","RCS_SIZE":"LARGE","MEAN_MOTION":"15.08857284","REF_FRAME":"TEME","CLASSIFICATION_TYPE":"U","TLE_LINE1":"1 50159U 21125D   22075.83334491 -.00020308  00000-0 -12608-2 0  9996","MEAN_ELEMENT_THEORY":"SGP4","MEAN_MOTION_DDOT":"0.0000000000000","EPOCH":"2022-03-16T20:00:01.000224","PERIAPSIS":"538.315","OBJECT_NAME":"STARLINK-3297","OBJECT_TYPE":"PAYLOAD","TLE_LINE2":"2 50159  53.2194 305.7387 0001991  50.0132 179.5080 15.08857284  3584","COUNTRY_CODE":"US","OBJECT_ID":"2021-125D","MEAN_MOTION_DOT":"-0.00020308","TIME_SYSTEM":"UTC","ARG_OF_PERICENTER":"50.0132","ECCENTRICITY":"0.00019910","SEMIMAJOR_AXIS":"6917.828"},{"ELEMENT_SET_NO":"999","EPHEMERIS_TYPE":"0","APOAPSIS":"541.036","GP_ID":"198922841","BSTAR":"-0.00133370000000","FILE":"3362094","CENTER_NAME":"EARTH","REV_AT_EPOCH":"358","RCS_SIZE":"LARGE","SITE":"AFWTR","RA_OF_ASC_NODE":"305.7420","INCLINATION":"53.2190","NORAD_CAT_ID":"50160","MEAN_ANOMALY":"148.7762","PERIOD":"95.438","LAUNCH_DATE":"2021-12-18","DECAY_DATE":null,"OBJECT_NAME":"STARLINK-3288","OBJECT_TYPE":"PAYLOAD","COUNTRY_CODE":"US","TLE_LINE2":"2 50160  53.2190 305.7420 0001823  40.8677 148.7762 15.08830511  3584","MEAN_MOTION":"15.08830511","CLASSIFICATION_TYPE":"U","TLE_LINE1":"1 50160U 21125E   22075.83334491 -.00021446  00000-0 -13337-2 0  9992","REF_FRAME":"TEME","MEAN_ELEMENT_THEORY":"SGP4","MEAN_MOTION_DDOT":"0.0000000000000","PERIAPSIS":"538.513","EPOCH":"2022-03-16T20:00:01.000224","ARG_OF_PERICENTER":"40.8677","ECCENTRICITY":"0.00018230","TIME_SYSTEM":"UTC","MEAN_MOTION_DOT":"-0.00021446","SEMIMAJOR_AXIS":"6917.909","OBJECT_ID":"2021-125E"},{"MEAN_MOTION":"15.08840159","TLE_LINE1":"1 50161U 21125F   22075.83334491 -.00024390  00000-0 -15195-2 0  9998","CLASSIFICATION_TYPE":"U","REF_FRAME":"TEME","MEAN_MOTION_DDOT":"0.0000000000000","MEAN_ELEMENT_THEORY":"SGP4","PERIAPSIS":"538.448","EPOCH":"2022-03-16T20:00:01.000224","OBJECT_TYPE":"PAYLOAD","OBJECT_NAME":"STARLINK-3304","COUNTRY_CODE":"US","TLE_LINE2":"2 50161  53.2185 305.7432 0001875  43.7357 125.8247 15.08840159  3589","OBJECT_ID":"2021-125F","ARG_OF_PERICENTER":"43.7357","ECCENTRICITY":"0.00018750","TIME_SYSTEM":"UTC","MEAN_MOTION_DOT":"-0.00024390","SEMIMAJOR_AXIS":"6917.880","CENTER_NAME":"EARTH","ELEMENT_SET_NO":"999","EPHEMERIS_TYPE":"0","APOAPSIS":"541.042","GP_ID":"198923581","BSTAR":"-0.00151950000000","FILE":"3362094","SITE":"AFWTR","RA_OF_ASC_NODE":"305.7432","NORAD_CAT_ID":"50161","INCLINATION":"53.2185","MEAN_ANOMALY":"125.8247","LAUNCH_DATE":"2021-12-18","PERIOD":"95.438","DECAY_DATE":null,"REV_AT_EPOCH":"358","RCS_SIZE":"LARGE"},{"CENTER_NAME":"EARTH","BSTAR":"0.00032357000000","FILE":"3362094","GP_ID":"198923829","APOAPSIS":"315.802","ELEMENT_SET_NO":"999","EPHEMERIS_TYPE":"0","DECAY_DATE":null,"LAUNCH_DATE":"2021-12-18","PERIOD":"90.789","MEAN_ANOMALY":"213.2792","INCLINATION":"53.2148","NORAD_CAT_ID":"50162","RA_OF_ASC_NODE":"285.3026","SITE":"AFWTR","RCS_SIZE":"LARGE","REV_AT_EPOCH":"370","EPOCH":"2022-03-16T20:00:01.000224","PERIAPSIS":"310.714","MEAN_MOTION_DDOT":"0.0000000000000","MEAN_ELEMENT_THEORY":"SGP4","REF_FRAME":"TEME","TLE_LINE1":"1 50162U 21125G   22075.83334491  .00081795  00000-0  32357-3 0  9999","CLASSIFICATION_TYPE":"U","MEAN_MOTION":"15.86090549","TLE_LINE2":"2 50162  53.2148 285.3026 0003802 156.8659 213.2792 15.86090549  3701","COUNTRY_CODE":"US","OBJECT_NAME":"STARLINK-3303","OBJECT_TYPE":"PAYLOAD","OBJECT_ID":"2021-125G","SEMIMAJOR_AXIS":"6691.393","MEAN_MOTION_DOT":"0.00081795","ARG_OF_PERICENTER":"156.8659","TIME_SYSTEM":"UTC","ECCENTRICITY":"0.00038020"},{"MEAN_MOTION":"15.45638201","REF_FRAME":"TEME","TLE_LINE1":"1 50163U 21125H   22075.83334491 -.00300280  00000-0 -63651-2 0  9995","CLASSIFICATION_TYPE":"U","MEAN_MOTION_DDOT":"0.0000000000000","MEAN_ELEMENT_THEORY":"SGP4","EPOCH":"2022-03-16T20:00:01.000224","PERIAPSIS":"428.284","OBJECT_TYPE":"PAYLOAD","OBJECT_NAME":"STARLINK-3306","TLE_LINE2":"2 50163  53.2176 293.4641 0001794  37.4343 230.5977 15.45638201  3657","COUNTRY_CODE":"US","OBJECT_ID":"2021-125H","MEAN_MOTION_DOT":"-0.00300280","ARG_OF_PERICENTER":"37.4343","ECCENTRICITY":"0.00017940","TIME_SYSTEM":"UTC","SEMIMAJOR_AXIS":"6807.640","CENTER_NAME":"EARTH","EPHEMERIS_TYPE":"0","ELEMENT_SET_NO":"999","APOAPSIS":"430.727","BSTAR":"-0.00636510000000","FILE":"3362094","GP_ID":"198924490","RA_OF_ASC_NODE":"293.4641","SITE":"AFWTR","NORAD_CAT_ID":"50163","INCLINATION":"53.2176","LAUNCH_DATE":"2021-12-18","PERIOD":"93.165","MEAN_ANOMALY":"230.5977","DECAY_DATE":null,"REV_AT_EPOCH":"365","RCS_SIZE":"LARGE"},{"REV_AT_EPOCH":"368","RCS_SIZE":"LARGE","NORAD_CAT_ID":"50164","INCLINATION":"53.2141","SITE":"AFWTR","RA_OF_ASC_NODE":"288.6106","DECAY_DATE":null,"MEAN_ANOMALY":"180.0617","PERIOD":"91.530","LAUNCH_DATE":"2021-12-18","EPHEMERIS_TYPE":"0","ELEMENT_SET_NO":"999","GP_ID":"198923341","FILE":"3362094","BSTAR":"-0.00059232000000","APOAPSIS":"351.867","CENTER_NAME":"EARTH","ARG_OF_PERICENTER":"7.4325","ECCENTRICITY":"0.00033860","TIME_SYSTEM":"UTC","MEAN_MOTION_DOT":"-0.00083177","SEMIMAJOR_AXIS":"6727.724","OBJECT_ID":"2021-125J","COUNTRY_CODE":"US","TLE_LINE2":"2 50164  53.2141 288.6106 0003386   7.4325 180.0617 15.73259946  3687","OBJECT_TYPE":"PAYLOAD","OBJECT_NAME":"STARLINK-3307","TLE_LINE1":"1 50164U 21125J   22075.83334491 -.00083177  00000-0 -59232-3 0  9990","CLASSIFICATION_TYPE":"U","REF_FRAME":"TEME","MEAN_MOTION":"15.73259946","PERIAPSIS":"347.311","EPOCH":"2022-03-16T20:00:01.000224","MEAN_MOTION_DDOT":"0.0000000000000","MEAN_ELEMENT_THEORY":"SGP4"},{"EPOCH":"2022-03-16T20:00:01.000224","PERIAPSIS":"538.338","MEAN_ELEMENT_THEORY":"SGP4","MEAN_MOTION_DDOT":"0.0000000000000","REF_FRAME":"TEME","TLE_LINE1":"1 50165U 21125K   22075.83334491 -.00020656  00000-0 -12830-2 0  9996","CLASSIFICATION_TYPE":"U","MEAN_MOTION":"15.08851175","TLE_LINE2":"2 50165  53.2198 305.7284 0001985  44.6101 204.9334 15.08851175  3587","COUNTRY_CODE":"US","OBJECT_TYPE":"PAYLOAD","OBJECT_NAME":"STARLINK-3298","OBJECT_ID":"2021-125K","SEMIMAJOR_AXIS":"6917.846","MEAN_MOTION_DOT":"-0.00020656","ARG_OF_PERICENTER":"44.6101","ECCENTRICITY":"0.00019850","TIME_SYSTEM":"UTC","CENTER_NAME":"EARTH","FILE":"3362094","BSTAR":"-0.00128300000000","GP_ID":"198924081","APOAPSIS":"541.084","EPHEMERIS_TYPE":"0","ELEMENT_SET_NO":"999","DECAY_DATE":null,"PERIOD":"95.437","LAUNCH_DATE":"2021-12-18","MEAN_ANOMALY":"204.9334","NORAD_CAT_ID":"50165","INCLINATION":"53.2198","RA_OF_ASC_NODE":"305.7284","SITE":"AFWTR","RCS_SIZE":"LARGE","REV_AT_EPOCH":"358"},{"DECAY_DATE":null,"LAUNCH_DATE":"2021-12-18","PERIOD":"94.805","MEAN_ANOMALY":"296.4444","INCLINATION":"53.2174","NORAD_CAT_ID":"50166","RA_OF_ASC_NODE":"296.0114","SITE":"AFWTR","RCS_SIZE":"LARGE","REV_AT_EPOCH":"363","CENTER_NAME":"EARTH","FILE":"3362094","BSTAR":"-0.03360500000000","GP_ID":"198924329","APOAPSIS":"510.103","EPHEMERIS_TYPE":"0","ELEMENT_SET_NO":"999","OBJECT_ID":"2021-125L","SEMIMAJOR_AXIS":"6887.273","MEAN_MOTION_DOT":"-0.00665408","ARG_OF_PERICENTER":"57.5609","ECCENTRICITY":"0.00014010","TIME_SYSTEM":"UTC","EPOCH":"2022-03-16T20:00:01.000224","PERIAPSIS":"508.174","MEAN_ELEMENT_THEORY":"SGP4","MEAN_MOTION_DDOT":"0.0000000000000","REF_FRAME":"TEME","CLASSIFICATION_TYPE":"U","TLE_LINE1":"1 50166U 21125L   22075.83334491 -.00665408  00000-0 -33605-1 0  9999","MEAN_MOTION":"15.18909055","TLE_LINE2":"2 50166  53.2174 296.0114 0001401  57.5609 296.4444 15.18909055  3631","COUNTRY_CODE":"US","OBJECT_NAME":"STARLINK-3305","OBJECT_TYPE":"PAYLOAD"},{"CENTER_NAME":"EARTH","GP_ID":"198923991","FILE":"3362094","BSTAR":"-0.00116500000000","APOAPSIS":"541.090","ELEMENT_SET_NO":"999","EPHEMERIS_TYPE":"0","DECAY_DATE":null,"MEAN_ANOMALY":"248.0111","LAUNCH_DATE":"2021-12-18","PERIOD":"95.438","INCLINATION":"53.2173","NORAD_CAT_ID":"50167","SITE":"AFWTR","RA_OF_ASC_NODE":"305.7242","RCS_SIZE":"LARGE","REV_AT_EPOCH":"359","PERIAPSIS":"538.471","EPOCH":"2022-03-16T20:00:01.000224","MEAN_MOTION_DDOT":"0.0000000000000","MEAN_ELEMENT_THEORY":"SGP4","TLE_LINE1":"1 50167U 21125M   22075.83334491 -.00018776  00000-0 -11650-2 0  9997","CLASSIFICATION_TYPE":"U","REF_FRAME":"TEME","MEAN_MOTION":"15.08828593","COUNTRY_CODE":"US","TLE_LINE2":"2 50167  53.2173 305.7242 0001893  41.5171 248.0111 15.08828593  3598","OBJECT_NAME":"STARLINK-3271","OBJECT_TYPE":"PAYLOAD","OBJECT_ID":"2021-125M","SEMIMAJOR_AXIS":"6917.915","TIME_SYSTEM":"UTC","ARG_OF_PERICENTER":"41.5171","ECCENTRICITY":"0.00018930","MEAN_MOTION_DOT":"-0.00018776"}];
